[{"OBJECT_NAME":"STARLINK-1873","OBJECT_ID":"2020-088AN","EPOCH":"2026-03-09T22:04:30.038304","MEAN_MOTION":15.57021972,"ECCENTRICITY":0.00086271,"INCLINATION":53.0491,"RA_OF_ASC_NODE":267.739,"ARG_OF_PERICENTER":148.5172,"MEAN_ANOMALY":211.6357,"EPHEMERIS_TYPE":0,"CLASSIFICATION_TYPE":"U","NORAD_CAT_ID":47158,"ELEMENT_SET_NO":999,"REV_AT_EPOCH":29233,"BSTAR":0.00084582413,"MEAN_MOTION_DOT":0.00062301,"MEAN_MOTION_DDOT":0},{"OBJECT_NAME":"STARLINK-2504","OBJECT_ID":"2021-036BE","EPOCH":"2026-03-10T00:00:02.999808","MEAN_MOTION":15.25942094,"ECCENTRICITY":9.724e-5,"INCLINATION":53.1409,"RA_OF_ASC_NODE":99.5198,"ARG_OF_PERICENTER":86.8504,"MEAN_ANOMALY":190.4785,"EPHEMERIS_TYPE":0,"CLASSIFICATION_TYPE":"U","NORAD_CAT_ID":48328,"ELEMENT_SET_NO":999,"REV_AT_EPOCH":579,"BSTAR":0.065566196,"MEAN_MOTION_DOT":0.01878352,"MEAN_MOTION_DDOT":0}]
